{
  "type": "FeatureCollection",
  "features": [
    {
      "type": "Feature",
      "geometry": {
        "type": "Polygon",
        "coordinates": [
          [
            [
              151.85450225989,
              -24.4313157936785
            ],
            [
              151.854576078646,
              -24.4309521475511
            ],
            [
              151.906515023283,
              -24.3624437679071
            ],
            [
              151.90680412521,
              -24.3622626870293
            ],
            [
              151.924483987919,
              -24.3583764454529
            ],
            [
              151.924505458774,
              -24.3583721871302
            ],
            [
              151.9653116309,
              -24.351144005825
            ],
            [
              151.965836096171,
              -24.3513699449961
            ],
            [
              151.967816102745,
              -24.3546859422935
            ],
            [
              151.967822922918,
              -24.354697778469
            ],
            [
              151.983284979083,
              -24.3825177062484
            ],
            [
              151.983293155936,
              -24.3825331338649
            ],
            [
              152.039106795493,
              -24.4930242685289
            ],
            [
              152.039143616789,
              -24.4932974500529
            ],
            [
              152.038215825969,
              -24.4977600822848
            ],
            [
              152.03803456206,
              -24.4980312837152
            ],
            [
              152.021511980574,
              -24.5097873646614
            ],
            [
              152.021264628895,
              -24.5098793577424
            ],
            [
              151.993264725884,
              -24.5127391840938
            ],
            [
              151.993237914695,
              -24.5127412427225
            ],
            [
              151.955865875843,
              -24.5146663987567
            ],
            [
              151.955710457746,
              -24.5146516504231
            ],
            [
              151.93273669541,
              -24.508994760559
            ],
            [
              151.932699683604,
              -24.5089841962295
            ],
            [
              151.929724435931,
              -24.5080156766647
            ],
            [
              151.929613952578,
              -24.5079645862113
            ],
            [
              151.912544368032,
              -24.4974125058147
            ],
            [
              151.912498255363,
              -24.4973802098251
            ],
            [
              151.872715109713,
              -24.465928125803
            ],
            [
              151.872693144314,
              -24.4659096583464
            ],
            [
              151.865900883876,
              -24.4598409194734
            ],
            [
              151.865812897019,
              -24.4597347326816
            ],
            [
              151.859104625402,
              -24.4485025569159
            ],
            [
              151.859058399963,
              -24.4483934334688
            ],
            [
              151.85450225989,
              -24.4313157936785
            ]
          ]
        ]
      },
      "properties": {
        "snapshot_utc": "2026-10-09T07:00:56Z",
        "snapshot_aest": "2026-10-09T17:00:56+10:00",
        "provider_code": "au.qld.ergon",
        "provider_name": "Ergon Energy",
        "outage_key": "au.qld.ergon|unplanned|912249",
        "outage_id": "912249",
        "outage_type": "unplanned",
        "status": "Crews working on-site",
        "reason": "The loss of supply is due to damage requiring emergency repairs. Fault finding is in progress.",
        "affected_customers": 279,
        "affected_customers_known": true,
        "suburb": "AGNES WATER, BAFFLE CREEK, DEEPWATER, RULES BEACH",
        "street_name": "BAYFIELD RD, BOAT RAMP RD, CAPRICORNIA DR, COAST RD, DALE DR, DEEPWATER RD, EMERY RD, FERNFIELD RD, FINGERFIELD RD, FLAT ROCK RD, FRESHWATER CT, KATE AVE, KIRCHNER RD, LINDY DR, MATCHBOX RD, MAUDE HILL RD, MULLER RD, OCEAN BEACH DR, OCEANIA CT, OYSTER CREEK RD, PACIFIC DR, RULES BEACH RD, SEABREEZE CT, SORENSEN RD, SORENSON RD, WRECK ROCK RD",
        "start_utc": "2026-10-09T03:59:05Z",
        "etr_utc": "2026-10-09T08:00:00Z",
        "centroid_lon": 151.94584464048825,
        "centroid_lat": -24.44031383117367,
        "lga_name": "Gladstone Regional",
        "lga_code": "3360",
        "source_url": "https://services.arcgis.com/33eHbTVqo7gtiCE8/arcgis/rest/services/VwErgonOutages/FeatureServer/0"
      }
    },
    {
      "type": "Feature",
      "geometry": {
        "type": "Polygon",
        "coordinates": [
          [
            [
              147.617201873278,
              -19.8463790467383
            ],
            [
              147.61662122251,
              -19.8460543085963
            ],
            [
              147.616963048998,
              -19.8455041238926
            ],
            [
              147.627180790677,
              -19.8429823126338
            ],
            [
              147.627762202316,
              -19.8433013771982
            ],
            [
              147.627430448845,
              -19.8438544829299
            ],
            [
              147.625380303209,
              -19.844399395435
            ],
            [
              147.625369520629,
              -19.844402133018
            ],
            [
              147.617201873278,
              -19.8463790467383
            ]
          ]
        ]
      },
      "properties": {
        "snapshot_utc": "2026-10-09T07:00:56Z",
        "snapshot_aest": "2026-10-09T17:00:56+10:00",
        "provider_code": "au.qld.ergon",
        "provider_name": "Ergon Energy",
        "outage_key": "au.qld.ergon|unplanned|912251",
        "outage_id": "912251",
        "outage_type": "unplanned",
        "status": "Crews on route",
        "reason": "The loss of supply is there are supply problems resulting in low voltage conditions. It is advisable to disconnect sensitive electrical appliances.",
        "affected_customers": 4,
        "affected_customers_known": true,
        "suburb": "GUMLU",
        "street_name": "BOWEN RD, BRUCE HWY",
        "start_utc": "2026-10-09T00:01:50Z",
        "etr_utc": "2026-10-09T09:00:00Z",
        "centroid_lon": 147.6222174091645,
        "centroid_lat": -19.844684377497032,
        "lga_name": "Whitsunday Regional",
        "lga_code": "7340",
        "source_url": "https://services.arcgis.com/33eHbTVqo7gtiCE8/arcgis/rest/services/VwErgonOutages/FeatureServer/0"
      }
    },
    {
      "type": "Feature",
      "geometry": {
        "type": "Polygon",
        "coordinates": [
          [
            [
              151.952486849601,
              -25.4797140414652
            ],
            [
              151.952561429408,
              -25.4794152217448
            ],
            [
              151.963879499764,
              -25.4633867726282
            ],
            [
              151.964559918307,
              -25.463248050803
            ],
            [
              151.99623034257,
              -25.4812263052627
            ],
            [
              151.996316613801,
              -25.4812883339292
            ],
            [
              152.025732564186,
              -25.5077511637054
            ],
            [
              152.025874668436,
              -25.5080086356252
            ],
            [
              152.029705777197,
              -25.5329003667791
            ],
            [
              152.029666606096,
              -25.5331478367894
            ],
            [
              152.00463923555,
              -25.5834266101019
            ],
            [
              152.004292349697,
              -25.5836811901313
            ],
            [
              151.96836332291,
              -25.59076086823
            ],
            [
              151.96776548345,
              -25.5903769954017
            ],
            [
              151.952486849601,
              -25.4797140414652
            ]
          ]
        ]
      },
      "properties": {
        "snapshot_utc": "2026-10-09T07:00:56Z",
        "snapshot_aest": "2026-10-09T17:00:56+10:00",
        "provider_code": "au.qld.ergon",
        "provider_name": "Ergon Energy",
        "outage_key": "au.qld.ergon|unplanned|912252",
        "outage_id": "912252",
        "outage_type": "unplanned",
        "status": "Outage reported",
        "reason": "The loss of supply is due to damage requiring emergency repairs. Fault finding is in progress.",
        "affected_customers": 67,
        "affected_customers_known": true,
        "suburb": "BIGGENDEN, DEGILBO",
        "street_name": "BIGGENDEN MINES RD, BIGGENDEN-GOOROOLBA RD, BISMUTH MINES RD, BLUFF VIEW RD, COALSTOUN LAKES RD, CORINGA RD, DEEP CREEK RD, DEGILBO MINES RD, DEGILBO MUAN RD, FENWICKS RD, GOOROOLBA BIGGENDEN RD, ISIS HWY, LORDS RD, MACES RD, MUAN RD",
        "start_utc": "2026-10-09T06:26:12Z",
        "etr_utc": null,
        "centroid_lon": 151.98813820914918,
        "centroid_lat": -25.52799588431722,
        "lga_name": "North Burnett Regional",
        "lga_code": "5760",
        "source_url": "https://services.arcgis.com/33eHbTVqo7gtiCE8/arcgis/rest/services/VwErgonOutages/FeatureServer/0"
      }
    },
    {
      "type": "Feature",
      "geometry": {
        "type": "Polygon",
        "coordinates": [
          [
            [
              142.271565710637,
              -26.5127149521291
            ],
            [
              142.271422630697,
              -26.5122192951666
            ],
            [
              142.271887544603,
              -26.5119238344179
            ],
            [
              142.897282178127,
              -26.5048833335899
            ],
            [
              142.897654599345,
              -26.5050253112812
            ],
            [
              143.076204959747,
              -26.6756630584414
            ],
            [
              143.075909931505,
              -26.6764181870739
            ],
            [
              142.565754365773,
              -26.7401238932217
            ],
            [
              142.565359448441,
              -26.740019311603
            ],
            [
              142.271565710637,
              -26.5127149521291
            ]
          ]
        ]
      },
      "properties": {
        "snapshot_utc": "2026-10-09T07:00:56Z",
        "snapshot_aest": "2026-10-09T17:00:56+10:00",
        "provider_code": "au.qld.ergon",
        "provider_name": "Ergon Energy",
        "outage_key": "au.qld.ergon|unplanned|912253",
        "outage_id": "912253",
        "outage_type": "unplanned",
        "status": "Work delayed - crews unable to continue",
        "reason": "The loss of supply is due to damage requiring emergency repairs. Fault finding is in progress.",
        "affected_customers": 12,
        "affected_customers_known": true,
        "suburb": "EROMANGA, QUILPIE, WINDORAH",
        "street_name": "COONABERRY RD, MOUNT HOWITT RD, TELEPHONE BORE RD",
        "start_utc": "2026-10-09T06:34:27Z",
        "etr_utc": null,
        "centroid_lon": 142.6869140124327,
        "centroid_lat": -26.6078859024466,
        "lga_name": "Quilpie Shire",
        "lga_code": "6150",
        "source_url": "https://services.arcgis.com/33eHbTVqo7gtiCE8/arcgis/rest/services/VwErgonOutages/FeatureServer/0"
      }
    }
  ]
}